trace_start_time,source_origin_time,receiver_latitude,receiver_longitude,receiver_elevation_m,p_arrival_sample,p_weight,p_travel_sec,s_arrival_sample,s_weight,source_latitude,source_longitude,source_depth_km,source_magnitude,source_magnitude_type,source_distance_deg,source_distance_km,back_azimuth_deg,trace_category,trace_name
2011-05-25 08:48:55.120000,2011-05-25 08:48:48.870000,32.75904,-115.73161,-8,700,0.67,13.25,1718,0.52,32.154,-115.3041667,10,2.56,ml,0.7673,85.17,152.2,earthquake_local,WES.CI_20110525084855_EV
2012-05-31 01:00:37.560000,2012-05-31 01:00:33.730000,40.25047,-124.17133,80,700,0.17,10.8299999237061,1528,0,40.572,-124.74,14.36,2.57,md,0.5405,60,306.6,earthquake_local,B047.PB_20120531010037_EV
2014-03-04 06:48:14.790000,2014-03-04 06:48:00.870000,33.401898,-118.415021,477,700,0,20.920000076294,2159,0.68,34.1118,-117.4096,10.87,2.58,ml,1.098,121.88,49.7,earthquake_local,CIA.CI_20140304064814_EV
2012-08-11 23:08:11.370000,2012-08-11 23:07:52.880000,35.5865,-117.4622,694.5,900,1,27.4899997711182,2863,0,34.1358333,-117.0106667,6.81,2.59,ml,1.495,165.95,165.7,earthquake_local,B921.PB_20120811230811_EV
2013-05-03 11:37:23.350000,2013-05-03 11:37:23.970000,36.927448,-121.827637,81,700,0.44,6.38000011444092,1245,0,36.9593,-121.447,6.5,2.6,md,0.3063,34,84,earthquake_local,JELB.NC_20130503113723_EV
2012-08-20 22:30:50.440000,2012-08-20 22:30:49.530000,36.1925,-117.6685,1859.9,600,0.48,6.90999984741211,1123,0.58,35.816,-117.6766667,5.02,2.61,ml,0.3758,41.71,181,earthquake_local,B916.PB_20120820223050_EV
2014-03-26 08:42:11.970000,2014-03-26 08:42:08.490000,40.81745,-124.02955,27.25,900,0.01,12.4799995422363,1798,0,40.383,-124.7462,16.8,2.62,md,0.6973,77.4,231.4,earthquake_local,JCC.BK_20140326084211_EV
2014-03-29 04:45:30.990000,2014-03-29 04:45:37.310000,33.80776,-117.98116,24,1000,0.34,3.6800000667572,1368,0.64,33.939,-117.904,1.3,2.63,ml,0.1475,16.37,27.9,earthquake_local,BRE.CI_20140329044530_EV
2016-04-17 03:59:56.140000,2016-04-17 03:59:51.240000,40.32197,-124.2843,44,1000,0.46,14.8999996185303,2125,0,40.9185,-123.4537,28.5,2.64,md,0.8694,96.5,46.9,earthquake_local,B046.PB_20160417035956_EV
2017-06-17 18:39:45.560000,2017-06-17 18:39:28.920000,18.09725,-65.55272,191,800,0.41,24.6399993896484,2826,0,19.3592,-64.4605,24.97,2.65,md,1.6455,182.65,40,earthquake_local,MTP.PR_20170617183945_EV
2014-11-11 10:56:22.020000,2014-11-11 10:56:13.040000,39.55451,-121.50036,334.7,600,0.34,14.9799995422363,1726,0,40.4025,-121.4887,5.6,2.66,md,0.8495,94.29,0.6,earthquake_local,ORV.BK_20141111105622_EV
2013-09-30 17:35:34.860000,2013-09-30 17:35:33.700000,33.7141,-116.7119,1507,900,0.64,10.1599998474121,1617,0.33,34.0325,-117.2462,16.4,2.67,ml,0.5463,60.64,305.5,earthquake_local,KNW.AZ_20130930173534_EV
2011-07-12 20:17:33.000000,2011-07-12 20:17:27.590000,34.87533,-116.99684,676.2,600,0.63,11.4099998474121,1433,0.62,34.7238333,-116.2961667,3.87,2.68,ml,0.5964,66.2,105.1,earthquake_local,RRX.CI_20110712201733_EV
2010-06-15 15:22:01.100000,2010-06-15 15:21:58.080000,32.892,-116.4223,1875,700,0.53,10.0200004577637,1414,0.58,32.6858333,-115.8516667,2.38,2.69,ml,0.5228,58.03,113.4,earthquake_local,MONP2.AZ_20100615152201_EV
2012-09-03 12:55:04.370000,2012-09-03 12:54:40.80,43.3276,79.4849,1290,700,0.5,30.5699996948242,3082,0.5,41.7424,78.1584,29.83,2.7,mb,1.87,207.08,31.4,earthquake_local,PDGK.KZ_20120903125503_EV
2010-05-25 22:22:15.980000,2010-05-25 22:22:10.160000,32.892,-116.4223,1875,500,0.54,10.8199996948242,1281,0.58,32.7036667,-115.7768333,8.26,2.71,ml,0.5752,63.85,109.3,earthquake_local,MONP2.AZ_20100525222215_EV
2012-09-26 17:21:08.090000,2012-09-26 17:21:03.310000,33.4947,-116.6022,1164,1000,0.63,14.7799997329712,2012,0.01,32.8748333,-116.018,9.15,2.72,ml,0.7908,87.78,142.6,earthquake_local,FRD.AZ_20120926172108_EV
2011-07-16 04:20:19.360000,2011-07-16 04:20:03.630000,33.56667,-116.63056,1274,600,0,21.7299995422363,2504,0.45,32.5558333,-115.7125,3.71,2.73,ml,1.276,141.64,143.7,earthquake_local,DNR.CI_20110716042019_EV
1993-10-27 00:42:12.200000,1993-10-27 00:41:55.340000,41.4255,-111.975,2646,400,0.62,20.8600006103516,1957,0.56,40.3371667,-111.9293333,4.06,2.74,md,1.088,120.92,179,earthquake_local,GZU.UU_19931027004211_EV
2010-04-05 02:24:58.690000,2010-04-05 02:24:57.640000,33.4577,-117.1708,355.7,1000,0.41,11.0500001907349,1822,0.61,33.4801667,-116.4545,13.34,2.75,ml,0.5992,66.51,88,earthquake_local,SMER.AZ_20100405022458_EV
2010-05-05 06:03:01.640000,2010-05-05 06:02:47.240000,32.68005,-116.67215,529,800,0.66,22.3999996185303,2470,0,32.2046667,-115.2853333,13.35,2.76,ml,1.265,140.42,112.5,earthquake_local,BAR.CI_20100505060301_EV
2010-04-19 03:36:53.680000,2010-04-19 03:36:43.410000,33.5575,-116.531,1392,700,0.95,17.2700004577637,1993,0.51,32.7456667,-115.883,9.56,2.77,ml,0.9775,108.5,147.2,earthquake_local,B086.PB_20100419033653_EV
2014-08-22 18:22:03.609250,2014-08-22 18:21:55.052000,42.4339,-118.6367,1344,900,0.06,17.5572490692139,2168.179,1,41.8992,-119.6329,4.7,2.78,ml,0.914,101.45,233.69,earthquake_local,WVOR.US_20140822182203_EV
2014-07-03 07:32:51.050000,2014-07-03 07:32:44.400000,18.09725,-65.55272,191,800,0.03,14.6499996185303,1907,0.08,18.9315,-65.7745,16.45,2.79,md,0.8561,95.03,345.733,earthquake_local,MTP.PR_20140703073251_EV
2015-03-16 06:13:14.590000,2015-03-16 06:13:12.19,37.012881,-97.477803,340,500,0.5,7.40000009536743,1028,0.5,37.1966,-97.8781,8.42,2.8,mb_lg,0.37,41.01,119.7,earthquake_local,KAN13.GS_20150316061313_EV
2010-04-07 21:48:45.860000,2010-04-07 21:48:36.260000,33.0262,-116.9596,478,1000,0.32,19.6000003814697,2387,0,32.6165,-115.7671667,4.01,2.81,ml,1.084,120.32,112.6,earthquake_local,HWB.AZ_20100407214845_EV
2014-03-27 19:49:27.420000,2014-03-27 19:49:17.700000,40.25047,-124.17133,80,900,0.56,18.7199993133545,2298,0.63,41.0737,-125.1817,23.8,2.82,md,1.127,125.1,317,earthquake_local,B047.PB_20140327194927_EV
2014-02-13 06:31:13.350000,2014-02-13 06:31:05.200000,32.94508,-115.79988,140,600,0.63,14.1499996185303,1626,0.86,33.1986,-116.6383,17.62,2.83,ml,0.7504,83.29,290,earthquake_local,SWS.CI_20140213063113_EV
2014-04-29 02:58:53.850000,2014-04-29 02:58:45.100000,18.0428,-66.60623,102.6,900,0.16,17.75,2253,0.8,19.07,-66.8917,8.37,2.84,md,1.05699,117.33,345.108,earthquake_local,OBIP.PR_20140429025853_EV
2016-06-30 00:18:18.060000,2016-06-30 00:18:03.400000,18.142069,-65.84885,79.1,700,0.75,21.6599998474121,2390,0.83,19.0715,-64.8562,8.36,2.85,md,1.31936,146.45,45.679,earthquake_local,HUMP.PR_20160630001818_EV
2010-05-10 08:57:56.360000,2010-05-10 08:57:46.470000,33.64785,-116.37769,296,800,0.83,17.8899993896484,2239,0.51,32.7095,-115.8831667,5.39,2.86,ml,1.024,113.66,156.3,earthquake_local,PMD.CI_20100510085756_EV
2014-03-20 01:19:57.440000,2014-03-20 01:19:59.450000,40.32197,-124.2843,44,600,0.57,3.99000000953674,898,0.6,40.306,-124.4893,7.8,2.87,md,0.1577,17.5,264.2,earthquake_local,B046.PB_20140320011957_EV
2014-04-03 17:58:11.680000,2014-04-03 17:57:55.420000,33.57526,-116.22584,4,500,0.61,21.2600002288818,2005,0,34.141,-117.4593,7,2.88,ml,1.171,129.98,298.6,earthquake_local,TOR.CI_20140403175811_EV
2013-12-05 09:49:37.007660,2013-12-05 09:49:37.890000,36.9804,-117.0336,1560,900,0.62,8.11765956878662,1460.615,0.93,37.3763,-117.1267,6.88,2.89,ml,0.408,45.29,349.41,earthquake_local,SGR.SN_20131205094937_EV
2015-06-01 00:43:34.330000,2015-06-01 00:43:10.810000,53.7938,-166.878,650,900,0.2,32.5200004577637,3355,0.97,52.87,-169.512,3.3,2.9,ml,1.83076,203.21,238.5825,earthquake_local,MGOD.AV_20150601004334_EV
2016-01-31 22:19:43.650000,2016-01-31 22:19:34.300000,18.346645,-66.753975,355.1,700,0.12,16.3500003814697,2037,0.68,18.9365,-67.6117,51.29,2.91,md,1.00283,111.31,305.672,earthquake_local,AOPR.PR_20160131221943_EV
2012-12-04 18:46:49.520000,2012-12-04 18:46:38.280000,33.05149,-114.82706,610,600,0.99,17.2399997711182,1894,0,32.0841667,-115.0541667,9.62,2.92,ml,0.9835,109.17,191.1,earthquake_local,GLA.CI_20121204184649_EV
2014-02-08 18:13:03.170000,2014-02-08 18:13:07.59,34.01919,-118.28631,58,700,0.5,2.57999992370606,921,0.5,34.0697,-118.2845,14.52,2.93,ml,0.05,5.61,181.3,earthquake_local,USC.CI_20140208181302_EV
2010-04-05 21:01:54.180000,2010-04-05 21:01:42.270000,32.73561,-116.94241,113,600,0.4,17.9099998474121,1865,0,32.653,-115.7791667,3.73,2.94,ml,0.9843,109.26,95.1,earthquake_local,SDR.CI_20100405210154_EV
2016-08-13 05:07:50.830000,2016-08-13 05:07:41.700000,18.0064,-67.1096,119.9,500,0.28,14.1300001144409,1690,0.9,18.3715,-67.6028,85.53,2.95,md,0.59304,65.83,307.68,earthquake_local,CRPR.PR_20160813050750_EV
2016-12-15 06:04:20.150000,2016-12-15 06:04:15.790000,33.5519,-116.6129,1358,900,0.57,13.3599996566773,1898,0.55,34.0529,-117.2501,19.87,2.96,ml,0.7254,80.52,313,earthquake_local,SND.AZ_20161215060420_EV
2010-04-08 02:08:25.710000,2010-04-08 02:08:23.820000,33.01213,-115.21987,39,900,0.38,10.8900003433228,1795,0,32.6953333,-115.7896667,7.6,2.97,ml,0.5743,63.75,236.3,earthquake_local,BTC.CI_20100408020825_EV
2010-05-11 19:58:12.270000,2010-05-11 19:57:53.660000,32.60771,-116.93019,159,600,0.94,24.6100006103516,2420,0,32.3011667,-115.3125,14.14,2.98,ml,1.401,155.51,103.1,earthquake_local,OLP.CI_20100511195812_EV
2011-07-29 23:20:40.670000,2011-07-29 23:20:27.730000,40.32197,-124.2843,44,700,0.12,19.9400005340576,2298,0.81,40.427,-125.8598333,17.36,2.99,ml,1.207,133.98,275,earthquake_local,B046.PB_20110729232040_EV
2018-02-06 20:54:12.228000,2018-02-06 20:54:09.979000,62.8295,-148.5509,722,800,0.26,10.2489995956421,1687.8,0.54,62.2923,-148.4749,37.2,3,ml,0.538,59.72,176.3,earthquake_local,WAT1.AK_20180206205412_EV
2013-08-24 23:26:02.960000,2013-08-24 23:25:52.300000,34.09181,-117.80709,305,700,0.52,17.6599998474121,2046,0.52,34.0089,-116.6372,13.85,3.01,ml,0.9795,108.72,95.1,earthquake_local,PSR.CI_20130824232602_EV
1993-03-15 10:49:07.770000,1993-03-15 10:48:49.990000,40.60195,-111.44995,2285,500,0.61,22.7800006866455,2281,0.63,39.5338333,-112.0755,2.12,3.02,md,1.17,130.05,204,earthquake_local,JLU.UU_19930315104906_EV
2012-08-26 18:58:12.700000,2012-08-26 18:58:12.240000,32.75394,-115.95085,78,800,0.58,8.46000003814697,1393,0.6,33.0135,-115.5445,10.36,3.03,ml,0.4288,47.6,52.9,earthquake_local,COON.ZY_20120826185812_EV
2015-10-13 15:14:42.030000,2015-10-13 15:14:36.200000,18.271674,-65.856634,606.9,900,0.35,14.8299999237061,2006,0.79,18.8123,-65.2713,63.05,3.04,md,0.77296,85.8,46.015,earthquake_local,CBYP.PR_20151013151442_EV
2014-10-25 11:07:40.330000,2014-10-25 11:07:35.28,34.55046,-117.43391,908,400,0.5,9.05000019073486,1041,0.79,34.2866,-117.0336,16.39,3.05,ml,0.42,47.02,308.6,earthquake_local,ADO.CI_20141025110739_EV
2018-06-17 07:51:14.830000,2018-06-17 07:51:08.510000,18.142069,-65.84885,79.1,700,0.76,13.3199996948242,1772,0,18.636,-64.9665,53.16,3.06,md,0.9818,108.98,60,earthquake_local,HUMP.PR_20180617075114_EV
2010-04-27 13:06:44.970000,2010-04-27 13:06:36.870000,32.68005,-116.67215,529,500,0.65,13.1000003814697,1408,0.63,32.6941667,-115.841,7.04,3.07,ml,0.701,77.81,89.1,earthquake_local,BAR.CI_20100427130644_EV
2010-04-30 00:32:04.170000,2010-04-30 00:31:54.900000,33.05149,-114.82706,610,700,0.11,16.2700004577637,1911,0.53,32.1663333,-115.198,18.61,3.08,ml,0.9365,103.95,199.3,earthquake_local,GLA.CI_20100430003204_EV
2013-10-25 11:29:19.847860,2013-10-25 11:29:18.835000,37.0667,-116.4703,1871,500,0.44,6.01285982131958,963.583,0.93,37.0637,-116.0899,3.77,3.09,ml,0.305,33.85,91.64,earthquake_local,TIM.SN_20131025112919_EV
2012-12-23 02:43:02.670000,2012-12-23 02:43:08.690000,36.610867,-121.314667,1052,800,0.48,1.98000001907349,954,0.59,36.699,-121.332,4.1,3.1,ml,0.08919,9.9,350.9,earthquake_local,BJOB.NC_20121223024302_EV
2010-05-10 07:45:07.180000,2010-05-10 07:44:55.38,61.0889,-149.739,390,500,0.5,16.7999992370606,1788,0.5,60.2081,-150.4661,50.33,3.11,mb,0.95,105.89,21.8,earthquake_local,RC01.AK_20100510074506_EV
2015-02-28 23:08:47.210000,2015-02-28 23:08:44.46,36.541,-89.228996,141,400,0.5,6.75,928,0.5,36.5281,-89.6371,15.21,3.12,md,0.33,36.57,87.7,earthquake_local,HICK.NM_20150228230846_EV
2014-03-08 04:16:46.050000,2014-03-08 04:16:31.440000,33.63,-116.8478,1365,900,0,23.6100006103516,2774,0.85,33.9633,-118.4241,16.05,3.13,ml,1.362,151.18,284.1,earthquake_local,RDM.AZ_20140308041646_EV
2011-08-18 21:43:53.590000,2011-08-18 21:43:49.260000,33.86164,-117.20529,468,1000,0.6,14.3299999237061,2017,0.57,33.7725,-118.1456667,19.53,3.14,ml,0.7879,87.46,263.2,earthquake_local,PER.CI_20110818214353_EV
2014-09-09 01:41:01.800000,2014-09-09 01:40:44.800000,18.0064,-67.1096,119.9,700,0.35,24,2641,0.17,18.7687,-68.0765,128.06,3.15,md,1.19074,132.17,309.396,earthquake_local,CRPR.PR_20140909014101_EV
2016-04-10 04:55:24.310000,2016-04-10 04:55:14.900000,18.271674,-65.856634,606.9,800,0.18,17.4099998474121,2229,0.66,18.9987,-65.017,45.69,3.16,md,1.0755,119.38,47.886,earthquake_local,CBYP.PR_20160410045524_EV
2018-01-02 02:07:42.230000,2018-01-02 02:07:37.770000,18.467493,-67.111184,119.9,600,0.47,10.460000038147,1453,0,18.9998,-66.8878,10.52,3.17,md,0.5727,63.57,22,earthquake_local,AGPR.PR_20180102020742_EV
2014-07-20 07:32:56.610000,2014-07-20 07:32:15.99,64.4716,-148.0918,329,400,0.5,44.6199989318848,3868,0.6,62.1431,-152.0703,110.08,3.18,mb,2.95,327.22,35.8,earthquake_local,WRH.AK_20140720073255_EV
2017-07-04 13:42:20.590000,2017-07-04 13:42:09.800000,34.10618,-118.45505,268,500,0.48,15.789999961853,1680,0.52,34.8436,-118.9556,16.36,3.19,ml,0.8526,94.64,330.4,earthquake_local,DJJ.CI_20170704134220_EV
2009-02-07 06:44:57.900000,2009-02-07 06:44:56.22,38.7047,23.5847,440,900,0.5,10.6800003051758,1688,0.67,38.3014,24.0662,13.81,3.2,ml,0.55,61.39,317.2,earthquake_local,MRKA.HA_20090207064456_EV
2010-04-05 16:52:12.270000,2010-04-05 16:51:58.020000,32.892,-116.4223,1875,800,0.98,22.25,2391,0,32.1691667,-115.2513333,9.99,3.21,ml,1.224,135.86,126.5,earthquake_local,MONP2.AZ_20100405165212_EV
2010-04-08 05:45:50.950000,2010-04-08 05:45:42.590000,32.75904,-115.73161,-8,500,0.09,13.3599996566773,1547,0.59,32.1973333,-115.2201667,9.98,3.22,ml,0.7075,78.53,142.6,earthquake_local,WES.CI_20100408054550_EV
2017-06-10 03:43:04.360000,2017-06-10 03:42:47.020000,18.271674,-65.856634,606.9,800,0.11,25.3400001525879,2686,0,18.8792,-64.2497,32.03,3.23,md,1.6545,183.65,69,earthquake_local,CBYP.PR_20170610034304_EV
2015-12-02 13:14:38.130000,2015-12-02 13:14:35.700000,18.353333,-64.962222,377,900,0.2,11.4300003051758,1806,0.78,18.8758,-64.5593,14.72,3.24,md,0.64504,71.6,36.387,earthquake_local,STVI.PR_20151202131438_EV
2016-09-01 02:21:14.190000,2016-09-01 02:21:01.800000,18.415041,-64.618605,36,700,0,19.3899993896484,2152,0.96,17.8718,-65.6397,6.49,3.25,md,1.11114,123.34,240.7492,earthquake_local,TBVI.PR_20160901022114_EV
2017-09-13 21:59:55.150000,2017-09-13 21:59:42.500000,34.27117,-117.42448,1616,600,0.73,18.6499996185303,1984,0.51,33.9719,-116.2797,16.78,3.26,ml,0.9974,110.71,107.6,earthquake_local,CJM.CI_20170913215955_EV
2011-03-15 07:16:04.270000,2011-03-15 07:15:48.990000,32.784,-117.13805,101,700,0.84,22.2800006866455,2471,0,31.5595,-117.1075,4.75,3.27,ml,1.221,135.53,178.8,earthquake_local,SDG.CI_20110315071604_EV
2014-07-14 22:59:56.130000,2014-07-14 22:59:29.83,41.445801,46.118301,1342,600,0.5,32.2999992370606,3473,0.5,42.8943,44.9708,6.1,3.28,mb,1.68,186.75,149.1,earthquake_local,DDFL.GO_20140714225955_EV
2015-07-22 05:24:16.990000,2015-07-22 05:23:50.168000,39.9444,-119.825,1670,900,0.91,35.8219985961914,3665.466,0,41.8923,-119.6275,10.29,3.29,ml,1.947,216.12,4.32,earthquake_local,WVA.NN_20150722052416_EV
2012-06-08 11:57:17.070000,2012-06-08 11:57:17.36,39.24565,26.26499,130,900,0.5,8.71000003814697,1484,0.5,38.829,26.4887,11.36,3.3,mb,0.45,50.15,338,earthquake_local,PRK.HL_20120608115716_EV
2015-05-04 13:40:08.870000,2015-05-04 13:39:59.090000,31.0376,-114.851,39,800,0.81,17.7800006866455,1989,0.63,31.2235,-115.9473333,6.29,3.31,ml,0.9582,106.36,280.9,earthquake_local,SFX.BC_20150504134008_EV
2010-04-20 05:15:55.630000,2010-04-20 05:15:43.850000,32.68005,-116.67215,529,900,0,20.7800006866455,2810,0,32.1835,-115.2608333,14.37,3.32,ml,1.292,143.41,113,earthquake_local,BAR.CI_20100420051555_EV
2014-04-13 15:47:10.020000,2014-04-13 15:47:02.000000,61.2003,-152.2091,984,500,0.8,13.0200004577637,1522,0.56,61.3075,-150.8662,60.91,3.33,mb,0.65812,73.05,80.781,earthquake_local,SPCR.AV_20140413154710_EV
2014-04-29 07:34:40.500000,2014-04-29 07:34:29.300000,18.09725,-65.55272,191,600,0.48,17.2000007629395,1883,0.07,18.5153,-66.1877,94.63,3.34,md,0.7327,81.33,304.48,earthquake_local,MTP.PR_20140429073440_EV
2018-10-26 06:31:26.170000,2018-10-26 06:30:59.310000,18.0428,-66.60623,102.6,900,0.49,35.8600006103516,3984,0,18.5145,-68.8938,115.67,3.35,md,2.2455,249.25,281,earthquake_local,OBIP.PR_20181026063126_EV
2010-04-05 17:03:20.450000,2010-04-05 17:03:09.390000,32.99889,-116.94187,463,800,0.3,19.0599994659424,2161,0,32.6065,-115.7846667,2.75,3.36,ml,1.05,116.55,112.3,earthquake_local,DPP.CI_20100405170320_EV
2015-01-18 09:48:28.830000,2015-01-18 09:48:23.000000,18.467493,-67.111184,119.9,1000,0.15,15.8299999237061,2318,0.7,19.3767,-67.438,49.22,3.37,md,0.95583,106.1,341.063,earthquake_local,AGPR.PR_20150118094828_EV
2017-06-03 03:42:21.420000,2017-06-03 03:42:12.460000,18.38527,-67.46666,151.7,800,0.48,16.9599990844727,2125,0,18.3756,-66.4386,58,3.38,md,1,111,91,earthquake_local,IDE.PR_20170603034221_EV
2010-04-05 10:39:27.230000,2010-04-05 10:39:21.370000,33.2801,-115.98585,14,700,0.59,12.8599996566773,1709,0,32.6245,-115.7465,3.05,3.39,ml,0.6841,75.94,163,earthquake_local,SAL.CI_20100405103927_EV
2012-08-07 10:44:51.650000,2012-08-07 10:44:49.47,62.9699,-145.4699,1150,600,0.5,8.18000030517578,1119,0.5,63.3567,-145.0462,2.16,3.4,mb,0.43,48.11,206.5,earthquake_local,PAX.AK_20120807104450_EV
2018-12-27 01:15:07.850000,2018-12-27 01:14:59.950000,33.4577,-117.1708,355.7,1000,0.46,17.8999996185303,2255,0.03,34.4063,-116.8868,4.03,3.41,ml,0.9755,108.28,13.8,earthquake_local,SMER.AZ_20181227011507_EV
2018-06-15 03:01:33.520000,2018-06-15 03:01:12.070000,18.0428,-66.60623,102.6,800,0.26,29.4500007629395,3037,0,19.2903,-68.0962,63.11,3.42,md,1.9,210.9,311,earthquake_local,OBIP.PR_20180615030133_EV
2014-08-28 08:00:16.420000,2014-08-28 07:59:51.32,52.2016,-174.1975,55,400,0.5,29.1000003814697,2684,0.78,52.1146,-170.9872,42.0,3.43,mb,1.98,219.89,273.8,earthquake_local,ATKA.AK_20140828080015_EV
2015-03-26 12:41:10.360000,2015-03-26 12:40:42.22,61.0889,-149.739,390,800,0.5,36.1399993896484,3486,0.5,59.8538,-153.3931,132.72,3.44,mb,2.19,243.53,54,earthquake_local,RC01.AK_20150326124109_EV
2015-01-27 08:16:45.890000,2015-01-27 08:16:39.120000,34.11816,-118.30024,342,500,0.52,11.7700004577637,1360,0.58,34.7585,-118.4435,11.96,3.45,ml,0.6423,71.3,349.1,earthquake_local,GR2.CI_20150127081645_EV
2008-01-25 21:15:58.040000,2008-01-25 21:15:46.44,63.5527,-150.9233,1172,700,0.5,18.6000003814697,2054,0.5,63.2106,-150.5257,128.46,3.46,mb,0.39,43.01,332.7,earthquake_local,KTH.AK_20080125211557_EV
2015-02-11 03:43:26.680000,2015-02-11 03:42:55.100000,18.271674,-65.856634,606.9,700,0,38.5800018310547,3633,0.39,17.7108,-68.337,107.84,3.47,md,2.42561,269.24,256.3229,earthquake_local,CBYP.PR_20150211034326_EV
2014-07-23 06:43:53.370000,2014-07-23 06:43:37.59,51.899,-177.9853,440,600,0.5,21.7800006866455,2373,0.5,51.2268,-176.2516,35,3.48,mb,1.27,141.58,302.6,earthquake_local,TAFP.AV_20140723064352_EV
2010-04-05 06:49:57.900000,2010-04-05 06:49:46.340000,32.784,-117.13805,101,800,0.53,19.5599994659424,2193,0,32.6813333,-115.8633333,7.16,3.49,ml,1.079,119.77,95.8,earthquake_local,SDG.CI_20100405064957_EV
2012-10-31 09:56:10.800000,2012-10-31 09:55:50.25,40.686001,30.3083,190,400,0.5,24.5499992370606,2164,0.79,40.4552,28.6935,15.66,3.5,ml,1.25,139.12,78.9,earthquake_local,SPNC.YH_20121031095609_EV
2015-06-02 01:31:15.320000,2015-06-02 01:31:11.550000,36.439047,-118.080495,1569.5,900,0.87,12.7700004577637,1760,0.56,35.867,-117.6899,10.69,3.51,ml,0.6601,73.27,151.5,earthquake_local,CWC.CI_20150602013115_EV
