trace_start_time,source_origin_time,receiver_latitude,receiver_longitude,receiver_elevation_m,p_arrival_sample,p_weight,p_travel_sec,s_arrival_sample,s_weight,source_latitude,source_longitude,source_depth_km,source_magnitude,source_magnitude_type,source_distance_deg,source_distance_km,back_azimuth_deg,trace_category,trace_name
2015-06-04 15:12:57.220000,2015-06-04 15:12:49.190000,35.9357,-117.6017,1042.6,700,0.57,15.0299997329712,1781,0.55,35.4731,-118.4252,9.05,3.52,ml,0.8077,89.65,235.6,earthquake_local,B918.PB_20150604151257_EV
2011-04-15 13:34:10.832980,2011-04-15 13:33:55.611000,38.03455,-120.38651,697,1000,0.32,25.2219791412354,2772.708,0,38.3873,-118.7267,3.2,3.53,mb,1.35,149.85,75.56,earthquake_local,CMB.BK_20110415133410_EV
2013-05-17 03:07:54.230000,2013-05-17 03:07:52.320000,33.55553,-115.94586,17,800,0.55,9.90999984741211,1516,0.62,33.1987,-115.5525,8.55,3.54,ml,0.483,53.61,136.9,earthquake_local,NSS2.CI_20130517030754_EV
2014-11-07 19:20:26.030000,2014-11-07 19:19:55.11,43.79211,-120.94066,1914,600,0.5,36.9199981689453,3781,0.87,41.895,-119.623,2.27,3.55,ml,2.13,236.67,333.4,earthquake_local,PINE.UO_20141107192025_EV
2014-06-05 14:41:27.690000,2014-06-05 14:41:13.15,63.7318,-148.9373,618,500,0.5,19.5400009155273,1873,0.5,62.849,-149.387,87.39,3.56,mb,0.91,100.95,12.8,earthquake_local,MCK.AK_20140605144126_EV
2012-03-24 21:16:29.710000,2012-03-24 21:16:17.980000,47.42546,-121.80254,440,500,0.06,16.7299995422363,1807,0.54,48.35,-122.281,7.75,3.57,ml,0.9796,108.74,340.7,earthquake_local,RATT.UW_20120324211629_EV
2012-12-15 17:16:59.660000,2012-12-15 17:16:27.850000,32.8889,-117.1051,150,800,0.45,39.810001373291,3707,0,31.468,-119.5566667,5.8,3.58,ml,2.516,279.28,234.9,earthquake_local,CPE.AZ_20121215171659_EV
2018-01-13 06:27:04.570000,2018-01-13 06:26:58.400000,32.6316,-115.4447,44.3,700,0.38,13.1700000762939,1771,0.51,33.1145,-116.0831,23.01,3.59,ml,0.7155,79.42,312.2,earthquake_local,UABX.BC_20180113062704_EV
2014-06-07 22:32:10.430000,2014-06-07 22:31:37.93,-25.1626,-69.5904,2556,900,0.5,41.5,4396,0.6,-22.5386,-68.8738,99.88,3.6,mw,2.69,299.65,194,earthquake_local,GO02.C_20140607223209_EV
2010-04-08 03:22:40.900000,2010-04-08 03:22:32.670000,32.99889,-116.94187,463,900,0.35,17.2299995422363,2129,0.53,32.7143333,-115.8738333,2.68,3.61,ml,0.9427,104.64,107.9,earthquake_local,DPP.CI_20100408032240_EV
2015-03-18 12:48:00.080000,2015-03-18 12:47:46.84,17.886299,-66.526703,10,700,0.5,20.2399997711182,2837,0.52,18.8396,-67.224,29,3.62,mb,1.16,128.7,145,earthquake_local,ICMP.PR_20150318124759_EV
2014-01-16 07:40:05.580000,2014-01-16 07:40:06.110000,33.86164,-117.20529,468,800,0.43,7.46999979019165,1351,0.59,33.8201,-117.6856,18.69,3.63,ml,0.4022,44.64,265.2,earthquake_local,PER.CI_20140116074005_EV
2014-07-15 14:30:21.900000,2014-07-15 14:30:14.86,38.0228,22.9673,408,800,0.5,15.039999961853,1782,0.5,38.1338,22.025,64.43,3.64,mb,0.75,83.59,98.2,earthquake_local,LTK.HP_20140715143020_EV
2014-11-06 07:12:16.526480,2014-11-06 07:12:01.940000,42.7258,-120.8934,1887,900,0.48,23.5864791870117,2697.571,1,41.8871,-119.6548,2.07,3.65,ml,1.243,137.97,132.66,earthquake_local,TREE.UW_20141106071216_EV
2010-04-07 16:38:39.970000,2010-04-07 16:38:37.620000,32.892,-116.4223,1875,1000,0.54,12.3500003814697,1873,0.57,32.5908333,-115.7291667,3.62,3.66,ml,0.6568,72.9,117.5,earthquake_local,MONP2.AZ_20100407163839_EV
2015-02-26 01:18:42.570000,2015-02-26 01:18:37.470000,33.4955,-116.602667,1139,700,0.46,12.1000003814697,1576,0.58,33.9362,-116.0244,9.9,3.67,ml,0.6508,72.24,47.4,earthquake_local,B087.PB_20150226011842_EV
2014-02-20 00:35:01.760000,2014-02-20 00:34:41.57,36.277,-117.5937,1813,500,0.5,25.1900005340576,2081,0.77,35.3051,-118.4918,7.86,3.68,ml,1.21,134.98,36.7,earthquake_local,DAC.LB_20140220003500_EV
2013-01-28 19:03:56.400000,2013-01-28 19:03:29.66,42.12722,77.194443,1830,900,0.5,35.7400016784668,3430,0.5,42.4693,79.6447,1.26,3.69,mb,1.86,205.59,260.3,earthquake_local,KDJ.KR_20130128190355_EV
2010-04-21 08:20:49.000000,2010-04-21 08:20:40.95,38.4112,22.5271,701,400,0.5,12.0500001907349,1370,0.5,37.8365,22.0753,7.01,3.7,mb,0.68,75.09,31.7,earthquake_local,DSF.HP_20100421082048_EV
2013-09-30 04:23:32.610000,2013-09-30 04:23:28.490000,32.68005,-116.67215,529,700,0.48,11.1199998855591,1489,0.6,32.8768,-115.9871,17.01,3.71,ml,0.6025,66.88,71.4,earthquake_local,BAR.CI_20130930042332_EV
2013-08-04 07:58:14.960000,2013-08-04 07:57:54.000000,60.5905,-152.8058,1414,600,0,26.9599990844727,2776,0.53,61.4416,-149.8714,43.94,3.72,mb,1.66171,184.45,60.384,earthquake_local,RDJH.AV_20130804075814_EV
2002-07-31 08:32:04.120000,2002-07-31 08:31:47.980000,33.4915,-116.667,1301,400,0,20.1399993896484,1845,0,34.571,-116.44117,1.99,3.73,ml,1.093,121.54,9.9,earthquake_local,BZN.AZ_20020731083203_EV
2014-07-27 00:43:43.550000,2014-07-27 00:43:06.76,53.8829,-166.6856,390,400,0.5,40.7900009155273,3618,0.5,51.9672,-169.5913,30,3.74,mb,2.6,289.15,41.4,earthquake_local,MNAT.AV_20140727004342_EV
2014-11-24 06:36:25.750000,2014-11-24 06:36:08.75,36.3795,-99.0014,525,500,0.5,22,2156,0.65,36.3267,-97.528,12.06,3.75,ms,1.19,132.38,273,earthquake_local,U32A.OK_20141124063624_EV
2012-10-19 05:25:42.000000,2012-10-19 05:25:17.86,65.0304,-150.7442,812,400,0.5,28.1399993896484,2493,0.92,63.5333,-149.5957,114.17,3.76,mb,1.58,175.92,342.2,earthquake_local,MLY.AK_20121019052541_EV
2014-01-24 12:07:14.510000,2014-01-24 12:07:04.02,61.0889,-149.739,390,700,0.5,17.4899997711182,1935,0.5,61.6613,-151.2612,4.61,3.77,mb,0.93,103.4,127.3,earthquake_local,RC01.AK_20140124120713_EV
2015-12-26 11:55:27.160000,2015-12-26 11:55:16.430000,34.27117,-117.42448,1616,700,0.6,17.7299995422363,1992,0.54,35.2062,-117.2865,5.78,3.78,mw,0.9456,104.96,7.2,earthquake_local,CJM.CI_20151226115527_EV
2012-09-27 04:12:54.580000,2012-09-27 04:12:45.43,63.4502,-150.2893,1711.9,700,0.5,16.1499996185303,1909,0.5,62.8845,-150.5091,94.03,3.79,mb,0.58,64.02,9.9,earthquake_local,TRF.AK_20120927041253_EV
2013-08-07 14:36:08.800000,2013-08-07 14:36:11.30,38.6926,23.0213,290,800,0.5,5.5,1260,0.5,38.6989,22.6686,11.8,3.8,mb,0.28,30.69,91.2,earthquake_local,ATAL.HA_20130807143607_EV
2014-07-21 19:56:42.530000,2014-07-21 19:56:11.95,51.899,-177.9853,440,500,0.5,35.5800018310547,3013,0.64,51.1589,-174.8866,15.21,3.81,mb,2.07,230.24,292.2,earthquake_local,TAFP.AV_20140721195641_EV
2011-04-11 09:03:36.860000,2011-04-11 09:03:17.380000,32.68005,-116.67215,529,1000,0.36,29.4799995422363,3230,0.6,31.2056667,-115.5586667,7.16,3.82,ml,1.748,194.03,147.6,earthquake_local,BAR.CI_20110411090336_EV
2005-11-04 20:12:25.900000,2005-11-04 20:12:08.48,41.14503,25.53553,116,900,0.5,26.420000076294,2760,0.5,40.7069,27.289,10,3.83,mb,1.4,155.5,288.9,earthquake_local,RDO.HL_20051104201224_EV
2014-05-19 20:09:04.850000,2014-05-19 20:08:50.83,35.30177,-116.80574,1000,600,0.5,20.0200004577637,2028,0.5,34.2557,-116.82,13.23,3.84,ml,1.04,116.05,0.6,earthquake_local,GSC.CI_20140519200903_EV
2014-08-22 05:39:28.600000,2014-08-22 05:39:19.73,54.0903,-166.0126,277,900,0.5,17.8700008392334,2212,0.5,53.1746,-165.9143,13.42,3.85,mb,0.92,102.12,356.5,earthquake_local,AKMO.AV_20140822053927_EV
2014-08-10 10:40:12.040000,2014-08-10 10:40:03.202000,37.4618,-113.8569,1874,1000,0.11,18.8379993438721,2340.831,0,37.327,-115.0721,10,3.86,ml,0.984,109.22,261.56,earthquake_local,VRUT.UU_20140810104012_EV
2014-07-29 22:18:09.310000,2014-07-29 22:17:37.04,57.2225,-153.2875,77.5,900,0.5,41.2700004577637,4073,0.6,59.9251,-153.2834,143.6,3.87,mb,2.71,301.04,180,earthquake_local,OHAK.AT_20140729221808_EV
2012-02-29 12:07:16.320000,2012-02-29 12:06:42.76,63.6482,-144.0697,670,800,0.5,41.560001373291,3868,0.51,63.5898,-149.9512,141.14,3.88,mb,2.63,291.67,86.1,earthquake_local,DOT.AK_20120229120715_EV
2014-03-24 07:30:26.630000,2014-03-24 07:29:58.19,65.0304,-150.7442,812,500,0.5,33.439998626709,2888,0.67,63.5138,-147.5275,76.76,3.89,mb,2.07,229.9,318.8,earthquake_local,MLY.AK_20140324073025_EV
2000-11-13 23:15:33.060000,2000-11-13 23:15:03.78,64.873599,-147.8616,200,700,0.5,36.2799987792969,3512,0.71,63.108,-150.589,130.3,3.9,mb,2.14,237.78,33,earthquake_local,COLA.IU_20001113231532_EV
2010-04-17 19:41:30.670000,2010-04-17 19:41:22.790000,32.68005,-116.67215,529,900,0.71,16.8799991607666,2091,0.54,32.5151667,-115.5961667,12.08,3.91,ml,0.923,102.45,100.6,earthquake_local,BAR.CI_20100417194130_EV
2010-05-14 05:11:08.490000,2010-05-14 05:11:07.870000,32.892,-116.4223,1875,900,0.55,9.61999988555908,1572,0.59,32.7038333,-115.861,4.8,3.92,ml,0.5086,56.45,111.9,earthquake_local,MONP2.AZ_20100514051108_EV
2012-10-10 04:19:51.970000,2012-10-10 04:19:29.090000,43.95367,-72.99175,439,700,0.04,29.8799991607666,3040,0.61,45.7553333,-73.2685,8.55,3.93,ml,1.812,201.13,353.8,earthquake_local,MCVT.LD_20121010041951_EV
2015-02-24 06:28:58.030000,2015-02-24 06:28:43.06,63.4056,-148.8602,993.6,500,0.5,19.9699993133545,1924,0.5,63.1287,-150.4637,115.98,3.94,mb,0.78,86.22,68.3,earthquake_local,RND.AK_20150224062857_EV
2014-08-23 05:04:50.140000,2014-08-23 05:04:40.19,61.4131,-148.4585,598,800,0.5,17.9500007629395,2195,0.48,61.5464,-150.464,58.86,3.95,mb,0.97,107.9,97,earthquake_local,KNK.AK_20140823050449_EV
2014-08-18 10:17:46.150000,2014-08-18 10:17:15.87,53.4107,-167.9115,201,700,0.5,37.2799987792969,3804,0.5,52.0883,-171.2236,42,3.96,mb,2.41,267.68,55.4,earthquake_local,OKFG.AV_20140818101745_EV
2015-03-26 20:56:43.610000,2015-03-26 20:56:27.06,59.3702,-153.3573,105,400,0.5,20.5499992370606,1928,0.5,60.1095,-152.9503,127.43,3.97,mb,0.77,85.48,195.7,earthquake_local,AU22.AV_20150326205642_EV
2015-01-19 10:36:45.710000,2015-01-19 10:36:11.50,61.4924,-145.9227,1047.1,500,0.5,39.2099990844727,3740,0.65,62.1898,-150.5747,9.75,3.98,mb,2.31,256.99,105.5,earthquake_local,KLU.AK_20150119103644_EV
2014-06-11 09:38:16.190000,2014-06-11 09:38:05.720000,35.89095,-117.28332,1174,700,0.54,17.4699993133545,1979,0.54,35.0028,-116.9219,10.33,3.99,ml,0.9359,103.88,161.5,earthquake_local,SLA.CI_20140611093816_EV
2012-06-14 03:17:13.750000,2012-06-14 03:17:15.720000,34.22362,-118.05832,1725,900,0.28,7.03000020980835,1415,0.64,33.9085,-117.7917,9.6,4,ml,0.3844,42.67,145,earthquake_local,MWC.CI_20120614031713_EV
2013-09-26 02:34:34.100000,2013-09-26 02:34:36.97,38.3911,22.1398,760,500,0.5,2.13000011444092,680,0.5,38.2932,22.1462,9.68,4.01,mb,0.1,10.88,357,earthquake_local,KALE.HA_20130926023433_EV
2012-06-10 22:45:57.590000,2012-06-10 22:45:42.910000,32.8889,-117.1051,150,1000,0.83,24.6800003051758,2806,0,32.105,-115.735,10.61,4.02,ml,1.397,155.07,124.5,earthquake_local,CPE.AZ_20120610224557_EV
2010-05-22 04:53:27.720000,2010-05-22 04:53:18.630000,32.73561,-116.94241,113,600,0.31,15.0900001525879,1652,0,32.7156667,-115.9476667,9.02,4.03,ml,0.8387,93.1,91.6,earthquake_local,SDR.CI_20100522045327_EV
2013-02-03 05:14:05.670000,2013-02-03 05:13:39.35,65.0304,-150.7442,812,900,0.5,35.3199996948242,3395,0.5,62.8805,-150.6985,99.67,4.04,mb,2.16,239.67,359.5,earthquake_local,MLY.AK_20130203051404_EV
2014-08-13 08:17:40.600000,2014-08-13 08:17:32.58,41.7291,77.8048,3530,900,0.5,17.0200004577637,2210,0.5,41.0606,78.7481,6.53,4.05,mb,0.97,108.33,313.6,earthquake_local,TARG.KC_20140813081739_EV
2014-07-22 02:57:43.340000,2014-07-22 02:57:17.14,-25.1626,-69.5904,2556,800,0.5,34.2000007629395,3346,0.5,-23.2853,-68.9107,88.02,4.06,mb,1.97,219.09,198.2,earthquake_local,GO02.C_20140722025742_EV
2014-07-13 11:18:32.300000,2014-07-13 11:18:08.96,40.37328,23.44443,566,700,0.5,30.3400001525879,3043,0.5,40.8635,21.1857,13.86,4.07,mb,1.79,198.72,105.1,earthquake_local,PLG.HL_20140713111831_EV
2014-08-30 16:50:22.280000,2014-08-30 16:49:52.61,-38.512929,174.855686,237,600,0.5,35.6699981689453,3573,0.75,-40.4141,176.083,33.55,4.08,ms,2.12,236.02,333,earthquake_local,HIZ.NZ_20140830165021_EV
2012-07-01 07:54:28.650000,2012-07-01 07:54:20.470000,32.75904,-115.73161,-8,500,0.51,13.1800003051758,1501,0.59,32.1863333,-115.267,9.64,4.09,mw,0.6967,77.33,146.2,earthquake_local,WES.CI_20120701075428_EV
2012-10-29 12:39:54.940000,2012-10-29 12:39:23.58,37.1504,-92.5193,399,900,0.5,40.3600006103516,3882,0.5,35.2287,-90.6364,18.06,4.1,ml,2.45,272.3,322.1,earthquake_local,T40A.TA_20121029123953_EV
2014-05-05 12:03:39.460000,2014-05-05 12:03:34.340000,-20.5656,-70.1807,616,1000,0.1,15.1199998855591,1989,0.09,-20.2098,-70.9026,13.8,4.11,mb,0.77191,85.68,297.515,earthquake_local,TA01.C1_20140505120339_EV
2012-09-21 15:21:19.300000,2012-09-21 15:21:21.55,38.2401,21.9785,505,500,0.5,2.75,730,0.5,38.3521,22.0075,10.04,4.12,mb,0.11,12.69,191.5,earthquake_local,LAKA.HA_20120921152118_EV
2014-08-16 01:56:37.140000,2014-08-16 01:55:59.52,18.353333,-64.962219,377,400,0.5,41.6199989318848,3541,0.6,17.805,-62.1905,55.39,4.13,mb,2.68,299.61,282.1,earthquake_local,STVI.PR_20140816015636_EV
2013-09-11 01:03:12.480000,2013-09-11 01:02:58.63,61.2003,-152.2091,984,800,0.5,21.8500003814697,2551,0.5,61.3331,-149.5082,50.64,4.14,mb,1.31,145.66,265.4,earthquake_local,SPCR.AV_20130911010311_EV
2011-01-23 06:47:31.150000,2011-01-23 06:47:24.550000,32.80532,-115.44679,-13,500,0.76,11.6000003814697,1426,0,32.2165,-115.3213333,1.82,4.15,ml,0.5966,66.22,169.8,earthquake_local,DRE.CI_20110123064731_EV
2014-08-21 04:34:05.320000,2014-08-21 04:33:49.94,35.688123,-120.400916,431,600,0.5,21.3799991607666,2276,0.76,36.6735,-121.0245,10.04,4.16,mb,1.1,122.89,152.7,earthquake_local,TCHL.BK_20140821043404_EV
2014-07-20 08:15:36.600000,2014-07-20 08:15:04.19,37.5324,21.7089,482,500,0.5,37.4099998474121,3210,0.5,37.8431,24.0047,184.07,4.17,mb,1.85,205.41,261,earthquake_local,AMT.HP_20140720081535_EV
2009-05-24 16:23:15.300000,2009-05-24 16:23:09.74,40.8217,23.3539,670,700,0.5,12.5600004196167,1690,0.5,41.2899,22.7078,12.0,4.18,mb,0.68,75.19,133.5,earthquake_local,SOH.HT_20090524162314_EV
2012-01-18 13:31:55.680000,2012-01-18 13:31:42.420000,32.68005,-116.67215,529,800,0.53,21.2600002288818,2550,0,32.4611667,-115.26,1.53,4.19,ml,1.212,134.53,100.8,earthquake_local,BAR.CI_20120118133155_EV
2002-11-04 05:00:33.284000,2002-11-04 05:00:02.454000,61.807,-148.3316,781,500,1,35.8300018310547,3260.7,0.73,63.2498,-145.0168,7.8,4.2,mb,2.101,234.44,48.18,earthquake_local,SAW.AK_20021104050032_EV
2014-07-25 07:10:54.230000,2014-07-25 07:10:28.49,14.39886,-89.360626,1830,800,0.5,33.7400016784668,3533,0.5,14.418,-89.9241,253.73,4.21,mb,0.55,60.8,91.9,earthquake_local,MTO3.SV_20140725071053_EV
2015-03-08 19:43:29.860000,2015-03-08 19:43:05.24,65.0304,-150.7442,812,600,0.5,30.6200008392334,3017,0.66,63.4993,-148.8309,10.26,4.22,mb,1.75,194.23,332.4,earthquake_local,MLY.AK_20150308194328_EV
2015-04-20 16:48:56.640000,2015-04-20 16:48:42.80,53.8829,-166.6856,390,600,0.5,19.8400001525879,2109,0.5,54.2531,-165.2473,106.07,4.23,mb,0.92,102.78,247,earthquake_local,MNAT.AV_20150420164855_EV
2014-08-19 01:42:09.790000,2014-08-19 01:41:33.67,54.0903,-166.0126,277,700,0.5,43.1199989318848,4181,0.63,52.6807,-169.5524,3.51,4.24,mb,2.55,282.94,54.9,earthquake_local,AKMO.AV_20140819014208_EV
2018-05-06 13:26:11.400000,2018-05-06 13:26:07.980000,19.164518,-155.749057,1592,600,0.06,9.42000007629394,1374,0,19.1001667,-155.2055,9.35,4.25,ml,0.5179,57.49,97.2,earthquake_local,HOVE.HV_20180506132611_EV
2013-07-20 18:16:01.850000,2013-07-20 18:15:27.34,62.9699,-145.4699,1150,700,0.5,41.5099983215332,4060,0.64,62.5913,-151.1361,93.68,4.26,mb,2.63,292.24,79.2,earthquake_local,PAX.AK_20130720181600_EV
2014-07-28 16:23:24.500000,2014-07-28 16:23:02.59,-19.6685,-69.1942,3809,900,0.5,30.9099998474121,3226,0.5,-19.9194,-71.0339,9.69,4.27,mb,1.75,194.76,82.1,earthquake_local,GO01.C_20140728162323_EV
2014-05-12 11:05:48.750000,2014-05-12 11:05:31.22,18.498912,100.229325,187,600,0.5,23.5300006866455,2377,0.96,19.6618,99.7099,10,4.28,mb,1.26,139.85,156.9,earthquake_local,PHRA.TM_20140512110547_EV
2013-09-20 02:05:26.100000,2013-09-20 02:05:19.54,37.5063,23.2368,553,600,0.5,12.5600004196167,1688,0.55,38.1694,23.1321,14.89,4.29,mb,0.67,74.17,172.8,earthquake_local,DID.HP_20130920020525_EV
2015-04-20 16:48:56.140000,2015-04-20 16:48:42.80,54.7111,-164.0008,817,600,0.5,19.3400001525879,2105,0.99,54.2531,-165.2473,106.07,4.3,mb,0.86,95.53,57.2,earthquake_local,SSLS.AV_20150420164855_EV
2014-07-29 13:03:35.330000,2014-07-29 13:03:16.56,-36.6634,-71.2731,913,400,0.5,22.7700004577637,2044,0.5,-37.1297,-71.0369,153.28,4.31,mb,0.5,55.87,337.8,earthquake_local,BI02.C1_20140729130334_EV
2014-07-20 09:22:31.450000,2014-07-20 09:22:14.85,-40.825522,172.529148,263,400,0.5,20.6000003814697,1980,0.67,-41.05,174.1584,63.61,4.32,mb,1.25,139.45,279.8,earthquake_local,QRZ.NZ_20140720092230_EV
2014-07-02 04:02:10.050000,2014-07-02 04:01:26.76,38.258,20.4244,41,500,0.5,48.2900009155273,3668,0.81,35.5136,21.5405,16.52,4.33,mb,2.88,320.39,342.2,earthquake_local,KEF4.HL_20140702040209_EV
2010-05-27 20:28:34.910000,2010-05-27 20:28:27.890000,33.01213,-115.21987,39,700,0.35,14.0200004577637,1790,0.58,32.2503333,-115.2881667,14.26,4.34,mw,0.7618,84.56,184.3,earthquake_local,BTC.CI_20100527202834_EV
2014-07-11 09:46:11.200000,2014-07-11 09:46:05.97,37.97384,23.71767,93,400,0.5,9.22999954223633,1050,0.5,38.4475,23.7032,14.61,4.35,mb,0.47,52.59,178.7,earthquake_local,ATH.HL_20140711094610_EV
2010-08-08 09:15:00.200000,2010-08-08 09:15:00.87,40.5978,23.0996,933,700,0.5,6.32999992370606,1260,0.5,40.5501,23.574,13.54,4.36,mb,0.36,40.52,277.7,earthquake_local,HORT.HT_20100808091459_EV
2014-08-19 12:41:40.030000,2014-08-19 12:41:35.26,35.25738,-97.40115,360,600,0.5,10.7700004577637,1460,0.9,35.8277,-97.4206,3.32,4.37,mb,0.57,63.3,178.4,earthquake_local,FNO.OK_20140819124139_EV
2013-09-21 18:43:04.520000,2013-09-21 18:42:34.11,56.5593,-154.1842,492,400,0.5,34.4099998474121,3091,0.7,58.1668,-156.3409,7.13,4.38,mb,1.99,221.1,143.1,earthquake_local,SII.AK_20130921184303_EV
2014-07-10 13:18:15.370000,2014-07-10 13:18:01.52,-28.836377,-70.273777,1227,700,0.5,20.8500003814697,2228,0.5,-27.9399,-69.9638,108.48,4.39,mb,0.93,103.89,196.9,earthquake_local,AC05.C1_20140710131814_EV
2012-05-23 09:35:38.200000,2012-05-23 09:35:28.51,59.6572,-151.6515,221,900,0.5,18.6900005340576,2260,0.64,59.0532,-152.8921,72.49,4.4,mw,0.88,97.5,46,earthquake_local,HOM.AK_20120523093537_EV
2014-04-03 04:05:03.960000,2014-04-03 04:04:43.54,-19.6685,-69.1942,3809,800,0.5,28.420000076294,2734,0.5,-20.3323,-70.6107,11.34,4.41,mb,1.49,165.45,63.9,earthquake_local,GO01.C_20140403040502_EV
2014-01-31 12:45:46.100000,2014-01-31 12:45:41.36,38.5986,21.1833,227,600,0.5,10.7399997711182,1604,0.9,38.4272,20.461,12.62,4.42,mb,0.59,65.81,73,earthquake_local,PDO.HP_20140131124545_EV
2015-01-08 03:21:42.350000,2015-01-08 03:21:24.58,51.3771,179.3,116,400,0.5,21.7700004577637,1999,0.5,52.0096,178.2266,130.16,4.43,mb,0.92,102.28,132.9,earthquake_local,AMKA.AV_20150108032141_EV
2014-09-19 15:35:33.000000,2014-09-19 15:35:09.39,40.10333,22.48916,558,800,0.5,31.6100006103516,3253,0.59,38.3673,21.825,11.35,4.44,mb,1.81,201.08,16.4,earthquake_local,LIT.HT_20140919153532_EV
2015-02-10 14:32:04.600000,2015-02-10 14:31:35.78,53.8829,-166.6856,390,500,0.5,33.8199996948242,3097,0.76,52.23,-168.5959,18.28,4.45,mb,2.02,224.13,34.1,earthquake_local,MNAT.AV_20150210143203_EV
2015-01-29 00:08:24.320000,2015-01-29 00:08:12.06,-31.2037,-71.0003,1190,600,0.5,18.2600002288818,1997,0.5,-31.501,-70.264,110.35,4.46,mb,0.7,77.43,295,earthquake_local,CO02.C1_20150129000823_EV
2014-08-02 14:12:32.200000,2014-08-02 14:12:32.79,-35.0099,-71.9303,96,900,0.5,8.40999984741211,1570,0.5,-34.7372,-71.8555,45.67,4.47,mb,0.28,31.02,192.6,earthquake_local,GO05.C_20140802141231_EV
2014-08-11 18:48:36.700000,2014-08-11 18:48:12.81,38.0228,22.9673,408,800,0.5,31.8899993896484,3100,0.5,36.2052,23.2526,58.45,4.48,mb,1.83,203.3,352.9,earthquake_local,LTK.HP_20140811184835_EV
2014-07-04 13:58:11.140000,2014-07-04 13:57:39.90,51.899,-177.9853,440,400,0.5,35.2400016784668,3153,0.99,51.9931,178.4766,112.9,4.49,mb,2.19,243.48,91,earthquake_local,TAFP.AV_20140704135810_EV
