trace_start_time,source_origin_time,receiver_latitude,receiver_longitude,receiver_elevation_m,p_arrival_sample,p_weight,p_travel_sec,s_arrival_sample,s_weight,source_latitude,source_longitude,source_depth_km,source_magnitude,source_magnitude_type,source_distance_deg,source_distance_km,back_azimuth_deg,trace_category,trace_name
2011-06-24 19:06:38.320000,2011-06-24 19:06:29.220000,35.5865,-117.4622,694.5,500,0.61,14.1000003814697,1537,0.58,35.6905,-118.4056667,4.4,1.61,ml,0.7755,86.23,277.4,earthquake_local,B921.PB_20110624190637_EV
2013-12-13 17:56:01.470000,2013-12-13 17:55:58.110000,35.7157,-120.2057,436.6,400,0.55,7.3600001335144,967,0.51,35.82617,-119.792,7.51,1.62,md,0.3541,39.37,71.8,earthquake_local,B079.PB_20131213175600_EV
2017-12-09 23:24:18.800000,2017-12-09 23:24:18.580000,19.504323,-155.702741,2535,500,0.63,5.21999979019165,875,0,19.3455,-155.49133,3.95,1.63,md,0.2545,28.32,128.6,earthquake_local,TOUO.HV_20171209232417_EV
2016-02-12 23:36:31.430000,2016-02-12 23:36:35.300000,19.296253,-155.307482,724,900,0.59,5.13000011444092,1386,0,19.33333,-155.06467,3.21,1.64,md,0.2323,25.85,80.8,earthquake_local,HLPD.HV_20160212233630_EV
2017-02-14 10:26:31.060000,2017-02-14 10:26:29.960000,33.598182,-116.596005,1374.8,599,0.93,7.09000015258789,1114,0.81,33.9565,-116.68033,17.78,1.65,ml,0.3642,40.5,348.9,earthquake_local,B082.PB_20170214102630_EV
2012-03-17 03:35:03.290000,2012-03-17 03:34:58.290000,33.4955,-116.602667,1139,900,0.59,14,1907,0.54,34.0453333,-117.235,16.16,1.66,ml,0.7604,84.56,316.1,earthquake_local,B087.PB_20120317033502_EV
2014-03-21 18:04:48.340000,2014-03-21 18:04:46.380000,33.05149,-114.82706,610,900,0.59,10.960000038147,1673,0.59,32.97183,-115.52067,9.95,1.67,ml,0.5882,65.41,262,earthquake_local,GLA.CI_20140321180447_EV
2014-09-04 01:01:32.620000,2014-09-04 01:01:31.010000,33.598182,-116.596005,1374.8,500,0.67,6.6100001335144,969,0.59,33.3505,-116.29517,13.32,1.68,ml,0.3525,39.2,134.7,earthquake_local,B082.PB_20140904010131_EV
2017-10-14 23:28:44.830000,2017-10-14 23:28:40.030000,33.61157,-116.45637,1271,695,0.92,11.75,1520,0.67,33.14667,-115.935,7.16,1.69,ml,0.6399,70.8,137,earthquake_local,B084.PB_20171014232843_EV
2017-08-02 01:17:16.494000,2017-08-02 01:17:12.929000,54.1095,-165.6987,213,900,0.79,12.5649995803833,1876.3,0.49,53.5521,-165.3964,49.6,1.7,ml,0.585,65.15,162.37,earthquake_local,AKSA.AV_20170802011715_EV
2016-08-02 05:10:51.910000,2016-08-02 05:10:51.980000,35.2422,-119.72486,1169,899,0.91,8.92000007629395,1568,0.71,35.12517,-119.20667,16.55,1.71,ml,0.4402,48.95,105.6,earthquake_local,CRG.CI_20160802051050_EV
2010-11-20 15:05:52.560000,2010-11-20 15:05:46.510000,33.4955,-116.602667,1139,400,0.55,10.0500001907349,1119,0.64,33.8611667,-117.0533333,14.66,1.72,ml,0.5237,58.24,314.2,earthquake_local,B087.PB_20101120150551_EV
2014-11-04 04:55:37.280000,2014-11-04 04:55:41.770000,35.94517,-120.5416,583,600,0.71,1.50999999046326,714,0.54,35.9695,-120.52983,6.48,1.73,md,0.02613,2.9,21.4,earthquake_local,PKD.BK_20141104045536_EV
2015-07-26 20:59:10.410000,2015-07-26 20:59:10.440000,37.1235,-98.095133,417,400,0.57,3.97000002861023,688,0.65,37.09817,-97.86117,4.92,1.74,ml,0.1887,20.98,97.8,earthquake_local,KAN10.GS_20150726205909_EV
2012-11-25 12:52:20.800000,2012-11-25 12:52:20.510000,39.65471,-122.71595,1354.8,700,0.59,7.28999996185303,1292,0.54,39.5093333,-123.1266667,-0.34,1.75,md,0.3486,38.8,245.3,earthquake_local,GASB.BK_20121125125219_EV
2018-06-14 21:19:17.850000,2018-06-14 21:19:23.250000,19.46017,-155.27533,1296,701,0.93,1.61000001430512,830,0.79,19.421,-155.27017,1.1,1.76,ml,0.03926,4.37,173,earthquake_local,RSDD.HV_20180614211916_EV
2012-10-09 00:16:56.480000,2012-10-09 00:16:59.300000,36.7995,-121.5808,114.2,600,0.69,3.1800000667572,841,0,36.9268333,-121.662,7.17,1.77,md,0.1432,15.88,333,earthquake_local,B058.PB_20121009001655_EV
2003-02-22 19:59:19.150000,2003-02-22 19:59:24.490000,34.2623,-116.92075,2069,700,0.6,1.6599999666214,858,0.6,34.31167,-116.85183,2.16,1.78,ml,0.07537,8.38,49.1,earthquake_local,BBR.CI_20030222195918_EV
2015-04-06 10:20:19.730000,2015-04-06 10:20:26.110000,33.4955,-116.602667,1139,800,0.94,1.62000000476837,927,0.9,33.46367,-116.578,7.9,1.79,ml,0.03786,4.21,147.1,earthquake_local,B087.PB_20150406102018_EV
2013-03-12 19:45:45.970000,2013-03-12 19:45:44.960000,38.807968,-122.795303,939,400,0.66,5.01000022888184,762,0.56,38.601,-122.614,3.6,1.8,md,0.2514,27.85,145.6,earthquake_local,GDXB.NC_20130312194544_EV
2018-06-04 10:03:36.120000,2018-06-04 10:03:34.100000,19.450382,-155.524977,3371,496,0.82,6.98000001907349,1123,0.99,19.32433,-155.19383,1.67,1.81,md,0.3368,37.48,112,earthquake_local,ELEP.HV_20180604100335_EV
2011-08-24 12:09:31.990000,2011-08-24 12:09:36.200000,38.807968,-122.795303,939,500,0.6,0.790000021457672,559,0,38.8323333,-122.7921667,1.74,1.82,md,0.02432,2.72,4.7,earthquake_local,GDXB.NC_20110824120930_EV
2016-09-14 14:50:11.230000,2016-09-14 14:50:11.980000,19.373785,-155.215495,994,699,0.87,6.23999977111816,1148,0.98,19.23633,-155.42717,35.38,1.83,md,0.2422,26.95,235,earthquake_local,PAUD.HV_20160914145010_EV
2015-12-19 08:21:57.840000,2015-12-19 08:21:56.290000,35.9292,-120.5153,583,700,0.6,8.55000019073486,1343,0,35.55,-120.783,4.15,1.84,md,0.4378,48.54,209.7,earthquake_local,B075.PB_20151219082156_EV
2018-03-11 16:07:52.630000,2018-03-11 16:07:53.010000,34.733165,-119.10391,1575,401,0.92,3.63000011444092,691,0.56,34.84583,-118.96283,13.24,1.85,ml,0.1616,17.97,45.8,earthquake_local,LMY.CI_20180311160751_EV
2015-02-07 21:31:34.140000,2015-02-07 21:31:33.200000,33.4915,-116.667,1301,599,0.93,6.92999982833862,1064,0.82,33.20567,-116.88733,17.35,1.86,ml,0.3395,37.76,212.7,earthquake_local,BZN.AZ_20150207213133_EV
2016-01-13 19:23:01.050000,2016-01-13 19:23:02.220000,19.372067,-155.457228,1524,868,0.87,7.51000022888184,1435,0.75,19.3135,-155.09584,5.76,1.87,md,0.3462,38.52,100,earthquake_local,AIND.HV_20160113192300_EV
2017-04-22 16:57:31.010000,2017-04-22 16:57:27.670000,17.965356,-66.106824,1,500,1,8.34000015258789,1173,0,17.889,-65.6533,11.91,1.88,md,0.4364,48.79,101,earthquake_local,IGPR.PR_20170422165730_EV
2010-12-28 11:42:07.600000,2010-12-28 11:42:04.760000,38.0273,-122.5655,14.4,500,0.68,7.84000015258789,1016,0.76,38.0216667,-122.1125,16.29,1.89,md,0.3577,39.78,90.9,earthquake_local,B057.PB_20101228114206_EV
2017-06-16 06:55:57.121000,2017-06-16 06:55:49.278000,53.9148,-166.788,423,800,0.83,15.8430004119873,2014.8,0.7,53.3353,-166.041,0.8,1.9,ml,0.729,81.26,142.9,earthquake_local,MSW.AV_20170616065556_EV
2012-02-04 07:49:11.130000,2012-02-04 07:49:06.660000,37.32363,-119.3187,888.1,700,0,11.4700002670288,1496,0.88,37.33,-118.5553333,10.49,1.91,md,0.6081,67.66,89.4,earthquake_local,KCC.BK_20120204074910_EV
2011-03-29 07:52:16.930000,2011-03-29 07:52:17.320000,33.08098,-116.59755,1308,500,0.62,4.6100001335144,851,0.95,33.0001667,-116.353,8.19,1.92,ml,0.2176,24.54,112.4,earthquake_local,JEM.CI_20110329075215_EV
2017-08-07 10:23:36.580000,2017-08-07 10:23:32.980000,19.372067,-155.457228,1524,400,0,7.59999990463257,973,0,19.44183,-155.88767,10.28,1.93,md,0.4122,45.87,279.7,earthquake_local,AIND.HV_20170807102335_EV
2016-10-12 08:10:10.810000,2016-10-12 08:10:08.500000,33.4915,-116.667,1301,800,0.92,10.3100004196167,1516,0.83,33.264,-116.10167,3.63,1.94,ml,0.5246,58.34,115.9,earthquake_local,BZN.AZ_20161012081009_EV
2017-10-24 23:05:19.680000,2017-10-24 23:05:19.180000,35.6897,-120.142,275.3,900,0.61,9.5,1732,0.9,35.99433,-120.5575,4.4,1.95,md,0.4543,50.51,312,earthquake_local,B901.PB_20171024230518_EV
2017-06-17 10:25:23.100000,2017-06-17 10:25:23.030000,44.45133,-110.83583,2292,700,0.56,7.07000017166138,1083,0.5,44.69117,-111.02167,7.83,1.96,ml,0.2741,30.47,331,earthquake_local,YFT.WY_20170617102522_EV
2016-06-20 14:12:56.410000,2016-06-20 14:12:51.890000,35.686,-120.003,219.5,800,0.55,12.5200004577637,1745,0.66,36.231,-120.32083,8.82,1.97,md,0.6036,66.92,334.6,earthquake_local,B900.PB_20160620141255_EV
2018-01-25 05:59:12.310000,2018-01-25 05:59:13.270000,36.852,-89.362,93,800,0.58,7.03999996185303,1298,0.58,36.566,-89.5976,8.65,1.98,md,0.3463,38.5,213.1,earthquake_local,CHRM.NM_20180125055911_EV
2011-10-23 12:25:54.800000,2011-10-23 12:25:57.350000,36.743667,-121.474167,643,600,0,3.45000004768372,858,0,36.8815,-121.6166667,5.42,1.99,md,0.1793,19.89,320.4,earthquake_local,B065.PB_20111023122553_EV
2014-12-29 06:19:05.260000,2014-12-29 06:19:05.640000,37.012881,-97.477803,340,800,0.57,7.61999988555908,1342,0.64,37.20017,-97.89817,6.97,2,ml,0.3846,42.76,299.2,earthquake_local,KAN13.GS_20141229061904_EV
2018-06-22 06:30:18.550000,2018-06-22 06:30:25.770000,19.371567,-155.263462,1051,866,0.73,1.44000005722046,984,0.94,19.41067,-155.25517,0.38,2.01,ml,0.03968,4.42,12,earthquake_local,AHUD.HV_20180622063017_EV
2014-03-05 09:23:18.280000,2014-03-05 09:23:20.600000,33.711167,-116.714167,1467,800,0.93,5.67999982833862,1207,0.89,33.8155,-117.03333,16.5,2.02,ml,0.2855,31.75,291.4,earthquake_local,B081.PB_20140305092317_EV
2014-10-05 09:42:15.440000,2014-10-05 09:42:09.890000,33.61157,-116.45637,1271,399,0.92,9.53999996185303,1089,0.79,33.97517,-116.8905,18.1,2.03,ml,0.5121,56.95,315.1,earthquake_local,B084.PB_20141005094214_EV
2017-03-24 11:13:12.520000,2017-03-24 11:13:12.780000,19.164518,-155.749057,1592,800,0.64,7.73999977111816,1359,0.57,18.8915,-155.54733,40.39,2.04,md,0.3319,36.94,145.1,earthquake_local,HOVE.HV_20170324111311_EV
2012-09-28 02:57:41.930000,2012-09-28 02:57:36.060000,33.598182,-116.596005,1374.8,500,0.67,10.8699998855591,1256,0.58,33.0271667,-116.427,8.69,2.05,ml,0.5868,65.26,166.2,earthquake_local,B082.PB_20120928025740_EV
2017-06-19 06:49:49.040000,2017-06-19 06:49:38.720000,38.2513,-118.5049,2353,400,0.52,14.3199996948242,1457,0.94,37.56433,-118.83233,1.37,2.06,md,0.7331,81.51,200.5,earthquake_local,LHV.NN_20170619064948_EV
2012-08-16 21:06:57.510000,2012-08-16 21:06:54.830000,40.25047,-124.17133,80,400,0.68,6.67999982833862,925,0.59,40.28,-124.5343333,19.22,2.07,md,0.2793,31.05,276.1,earthquake_local,B047.PB_20120816210656_EV
2015-11-22 19:04:49.800000,2015-11-22 19:04:54.610000,19.46017,-155.27533,1296,700,0.62,2.19000005722046,872,0,19.392,-155.27833,2.63,2.08,ml,0.06787,7.55,182.4,earthquake_local,RSDD.HV_20151122190448_EV
2015-07-06 00:08:34.230000,2015-07-06 00:08:40.470000,36.613,-89.647,82,900,0.63,2.75999999046326,1127,0.6,36.54717,-89.56567,9.81,2.09,md,0.09275,10.31,135.3,earthquake_local,CATM.NM_20150706000833_EV
2011-11-10 23:22:46.970000,2011-11-10 23:22:51.430000,33.598182,-116.596005,1374.8,800,0.93,3.53999996185303,1061,0.66,33.4716667,-116.4505,8.83,2.1,ml,0.1752,19.48,136.2,earthquake_local,B082.PB_20111110232245_EV
2017-02-17 18:25:06.760000,2017-02-17 18:25:03.750000,36.07,-91.154,103,400,0.67,7.01000022888184,930,0.67,36.417,-91.357,4.99,2.11,md,0.3832,42.61,334.7,earthquake_local,LCAR.AG_20170217182505_EV
2015-03-09 20:14:48.200000,2015-03-09 20:14:50.420000,33.711167,-116.714167,1467,501,0.93,2.78999996185303,707,0.91,33.70367,-116.76033,16.47,2.12,ml,0.04097,4.36,260.6,earthquake_local,B081.PB_20150309201447_EV
2008-01-05 21:18:44.840000,2008-01-05 21:18:42.170000,33.65516,-115.99006,538,591,0.87,8.57999992370606,1204,0.78,33.3181667,-116.3348333,12.22,2.13,ml,0.4489,49.23,221.5,earthquake_local,CTC.CI_20080105211843_EV
2015-07-14 17:10:49.580000,2015-07-14 17:10:53.180000,33.598182,-116.596005,1374.8,700,0.94,3.40000009536743,945,0.81,33.46733,-116.45167,2.91,2.14,ml,0.1777,19.76,137.4,earthquake_local,B082.PB_20150714171048_EV
2017-06-12 01:21:04.730000,2017-06-12 01:21:09.030000,34.629,-85.034,478,700,0.62,2.70000004768372,939,0.62,34.7825,-85.05783,4.12,2.15,md,0.1544,17.17,352.7,earthquake_local,CMGA.ET_20170612012103_EV
2016-03-05 15:43:40.870000,2016-03-05 15:43:45.080000,36.610867,-121.314667,1052,600,0.74,1.78999996185303,723,0.55,36.62333,-121.23117,5.68,2.16,md,0.06847,7.6,79.5,earthquake_local,BJOB.NC_20160305154339_EV
2014-10-02 23:58:12.880000,2014-10-02 23:58:14.970000,37.248,-97.8586,393,400,0.64,1.9099999666214,539,0.57,37.23217,-97.9545,3.29,2.17,ml,0.07815,8.69,258.3,earthquake_local,KAN06.GS_20141002235811_EV
2017-12-24 11:00:51.640000,2017-12-24 11:00:45.510000,34.2623,-116.92075,2069,400,0.93,10.1300001144409,1129,0.64,34.0405,-117.49833,10.27,2.18,ml,0.5276,58.67,244.9,earthquake_local,BBR.CI_20171224110050_EV
2011-09-17 03:12:48.600000,2011-09-17 03:12:41.080000,33.59369,-116.7641,1229.6,900,0.59,16.5200004577637,2107,0.56,34.4728333,-116.4996667,3.43,2.19,ml,0.904,100.53,14.1,earthquake_local,B093.PB_20110917031247_EV
2017-04-16 01:35:51.268000,2017-04-16 01:35:48.239000,59.6572,-151.6515,221,906.2,0.71,12.0909996032715,1900.2,0.6,60.1611,-150.977,45.6,2.2,ml,0.607,67.65,34.16,earthquake_local,HOM.AK_20170416013550_EV
2017-07-16 04:34:34.540000,2017-07-16 04:34:22.870000,33.5575,-116.531,1392,400,0.6,15.6700000762939,1509,0.55,34.41917,-116.5505,8.69,2.21,ml,0.8596,95.6,358.9,earthquake_local,B086.PB_20170716043433_EV
2010-11-07 14:30:17.430000,2010-11-07 14:30:12.330000,33.4955,-116.602667,1139,500,0.66,10.1000003814697,1199,0.62,32.9985,-116.3488333,7.74,2.22,ml,0.5394,59.98,156.9,earthquake_local,B087.PB_20101107143016_EV
2016-03-16 07:54:52.470000,2016-03-16 07:54:56.040000,36.698,-89.593,85,900,0.6,5.42999982833862,1307,0.6,36.55367,-89.86167,8.98,2.23,md,0.2597,28.88,236.1,earthquake_local,KEWM.NM_20160316075451_EV
2016-11-06 04:46:54.720000,2016-11-06 04:46:59.020000,19.412033,-155.280922,1128,500,0.59,0.699999988079071,580,0.55,19.405,-155.26383,1.23,2.24,ml,0.01758,1.96,113.6,earthquake_local,NPT.HV_20161106044653_EV
2018-06-27 21:22:00.310000,2018-06-27 21:22:04.640000,19.493172,-155.386023,2063,783,0.77,3.5,1057,0.85,19.4068336,-155.2801666,0.53,2.25,ml,0.1317,14.66,131,earthquake_local,MLOD.HV_20180627212159_EV
2014-06-05 14:53:02.200000,2014-06-05 14:53:06.060000,40.32197,-124.2843,44,800,0.66,4.1399998664856,1129,0.66,40.34367,-124.42883,18.7,2.26,md,0.1126,12.52,281.1,earthquake_local,B046.PB_20140605145301_EV
2011-05-20 14:40:03.200000,2011-05-20 14:39:54.960000,33.5575,-116.531,1392,400,0.64,12.2399997711182,1293,0.55,32.9293333,-116.2713333,12.01,2.27,ml,0.6632,73.75,161,earthquake_local,B086.PB_20110520144002_EV
2017-08-04 04:31:35.260000,2017-08-04 04:31:32.390000,41.7826,-121.8393,1391,800,0.69,10.8699998855591,1638,0.54,41.25233,-121.58683,8.69,2.28,md,0.5627,62.55,160.5,earthquake_local,SHEP.BK_20170804043134_EV
2015-09-08 00:33:24.330000,2015-09-08 00:33:29.500000,37.297383,-97.998,425.5,700,0.63,1.83000004291534,835,0.63,37.234,-98.01067,5.54,2.29,ml,0.06407,7.12,189,earthquake_local,KAN12.GS_20150908003323_EV
2013-03-03 17:20:59.220000,2013-03-03 17:20:55.670000,34.03852,-116.64795,938,700,0.62,10.5500001907349,1462,0.58,33.50333,-116.456,6.56,2.3,ml,0.5572,61.97,163.5,earthquake_local,MSC.CI_20130303172058_EV
2014-12-18 10:44:46.140000,2014-12-18 10:44:48.180000,33.84822,-118.09624,14,701,0.92,4.96999979019165,1101,0.74,33.64667,-118.10367,10.94,2.31,ml,0.2011,22.37,181.8,earthquake_local,DLA.CI_20141218104445_EV
2017-05-07 21:21:42.990000,2017-05-07 21:21:45.650000,36.366,-89.796,78,800,0.6,5.34000015258789,1209,0.57,36.5835,-89.62167,8.79,2.32,md,0.2586,28.75,32.9,earthquake_local,WADM.NM_20170507212141_EV
2018-06-13 04:58:28.360000,2018-06-13 04:58:31.260000,19.38486,-155.12543,769,599,0.92,3.08999991416931,759,1,19.40633,-155.25783,1.71,2.33,ml,0.1268,14.11,279,earthquake_local,STCD.HV_20180613045827_EV
2017-10-10 03:45:44.820000,2017-10-10 03:45:36.370000,32.79184,-116.09718,265,695,0.47,15.3999996185303,1908,0.8,32.37917,-115.2395,11.41,2.34,ml,0.8328,92.62,120,earthquake_local,SWP.CI_20171010034543_EV
2018-04-26 03:52:39.410000,2018-04-26 03:52:45.470000,19.373785,-155.215495,994,700,0.62,0.939999997615814,764,0.58,19.36933,-155.23167,0.46,2.35,ml,0.0159,1.77,253.7,earthquake_local,PAUD.HV_20180426035238_EV
2015-05-14 01:35:39.650000,2015-05-14 01:35:43.910000,19.4151,-155.23831,1177,600,0.61,1.74000000953674,713,0.57,19.39183,-155.27767,2.67,2.36,ml,0.04377,4.87,237.9,earthquake_local,NAHU.HV_20150514013538_EV
2017-10-17 00:02:03.290000,2017-10-17 00:02:00.400000,40.1766,-122.7884,962,800,0.64,10.8900003433228,1671,0.45,39.8181667,-123.3045,6.23,2.37,md,0.5342,59.38,227.6,earthquake_local,PETY.BK_20171017000202_EV
2015-03-28 05:54:51.590000,2015-03-28 05:54:48.150000,32.68005,-116.67215,529,398,0.9,7.42000007629395,944,0.75,33.05283,-116.525,12.9,2.38,ml,0.3915,43.58,18.3,earthquake_local,BAR.CI_20150328055450_EV
2018-07-15 13:41:22.040000,2018-07-15 13:41:27.150000,19.371567,-155.263462,1051,707,0.83,1.96000003814697,969,0.74,19.42317,-155.27083,0.31,2.39,ml,0.0518,5.76,352,earthquake_local,AHUD.HV_20180715134121_EV
2012-06-06 13:35:00.948000,2012-06-06 13:34:47.821000,63.4056,-148.8602,993.6,401.2,0.88,17.1389999389648,1716.2,0.55,63.8423,-149.2717,115,2.4,ml,0.473,52.78,337.09,earthquake_local,RND.AK_20120606133459_EV
2016-11-28 02:06:44.090000,2016-11-28 02:06:37.370000,43.118721,-123.244423,957,900,0.58,15.7200002670288,2215,0.58,43.24267,-124.4665,17.99,2.41,ml,0.9025,100.31,277.5,earthquake_local,DBO.UO_20161128020643_EV
2016-04-26 05:32:18.730000,2016-04-26 05:32:22.190000,34.54,-85.611,556,700,0.68,3.53999996185303,948,0.68,34.64783,-85.49783,14.63,2.42,md,0.1424,15.84,40.9,earthquake_local,FPAL.ET_20160426053217_EV
2016-09-02 01:57:51.820000,2016-09-02 01:57:52.290000,33.5575,-116.531,1392,399,0.93,3.51999998092651,652,0.89,33.5785,-116.70283,14.64,2.43,ml,0.145,16.12,278.3,earthquake_local,B086.PB_20160902015750_EV
2018-04-08 17:19:53.910000,2018-04-08 17:19:56.370000,18.467493,-67.111183,119.9,800,1,5.53999996185303,1227,0,18.2393,-66.9693,16.87,2.44,md,0.2636,29.37,150,earthquake_local,AGPR.PR_20180408171952_EV
2015-04-21 04:50:49.060000,2015-04-21 04:50:46.050000,40.2375,-123.8197,117,400,0.65,7.01000022888184,959,0.58,40.5323,-123.892,25.2,2.45,md,0.3009,33.31,349.4,earthquake_local,B049.PB_20150421045048_EV
2017-06-30 15:05:07.200000,2017-06-30 15:05:13.000000,35.9292,-120.5153,583,800,0.68,2.20000004768372,935,0,35.96833,-120.52417,10.75,2.46,md,0.03971,4.41,349.6,earthquake_local,B075.PB_20170630150506_EV
2011-05-03 00:56:32.590000,2011-05-03 00:56:28.500000,40.32197,-124.2843,44,700,0.59,11.0900001525879,1511,0.52,40.4178333,-124.8901667,1.06,2.47,md,0.4721,52.55,281.7,earthquake_local,B046.PB_20110503005631_EV
2018-07-05 22:50:09.610000,2018-07-05 22:50:15.090000,19.373785,-155.215495,994,800,0.66,2.51999998092651,988,0.88,19.41033,-155.29167,0.81,2.48,ml,0.08058,8.97,296,earthquake_local,PAUD.HV_20180705225008_EV
2018-06-14 09:38:15.570000,2018-06-14 09:38:19.370000,19.296253,-155.307482,724,702,0.9,3.22000002861023,1053,0.7,19.40883,-155.2635,0.57,2.49,ml,0.1194,13.29,21,earthquake_local,HLPD.HV_20180614093814_EV
2016-11-09 20:34:13.560000,2016-11-09 20:34:03.750000,34.48372,-118.11781,992,500,0.52,14.8100004196167,1512,0.55,33.6797,-117.9082,15.8,2.5,ml,0.8207,91.1,167.9,earthquake_local,VCS.CI_20161109203413_EV
2018-03-24 07:19:06.060000,2018-03-24 07:19:03.980000,19.46017,-155.27533,1296,900,0.5,11.0799999237061,1707,0.04,18.8143333,-155.1705,9.99,2.51,ml,0.65,72.15,171.3,earthquake_local,RSDD.HV_20180324071906_EV
2011-12-09 00:52:25.380000,2011-12-09 00:52:07.130000,35.686,-120.003,219.5,900,1,27.25,2911,0,36.229,-118.3266667,4.46,2.52,ml,1.459,161.95,68.7,earthquake_local,B900.PB_20111209005225_EV
2012-01-10 14:19:10.780000,2012-01-10 14:19:00.780000,33.82854,-117.78938,208,500,0.61,15,1555,0.39,33.0443333,-117.8853333,7.32,2.53,ml,0.793,88.02,185,earthquake_local,SRN.CI_20120110141910_EV
2010-12-27 19:16:05.420000,2010-12-27 19:15:53.680000,33.0262,-116.9596,478,900,0.08,20.7399997711182,2425,0,32.5453333,-115.7053333,3.28,2.54,ml,1.16,128.76,114.9,earthquake_local,HWB.AZ_20101227191605_EV
2011-03-31 21:50:14.320000,2011-03-31 21:50:04.890000,33.64785,-116.37769,296,1000,0.16,19.4300003051758,2442,0,32.6433333,-115.7418333,4.17,2.55,ml,1.167,129.54,152.1,earthquake_local,PMD.CI_20110331215014_EV
